OBJECT_NAME,OBJECT_ID,EPOCH,MEAN_MOTION,ECCENTRICITY,INCLINATION,RA_OF_ASC_NODE,ARG_OF_PERICENTER,MEAN_ANOMALY,EPHEMERIS_TYPE,CLASSIFICATION_TYPE,NORAD_CAT_ID,ELEMENT_SET_NO,REV_AT_EPOCH,BSTAR,MEAN_MOTION_DOT,MEAN_MOTION_DDOT
STARLINK-5298,2023-010N,2026-06-27T05:23:19.483584,14.98321309,.0003507,69.9998,128.2601,271.5041,88.5716,0,U,55281,999,18918,.11716E-3,.1305E-4,0
STARLINK-5330,2023-010P,2026-06-27T04:47:29.880960,14.98328764,.000373,69.9995,128.1703,262.7979,97.2756,0,U,55282,999,18918,.3626E-4,.34E-5,0
STARLINK-5317,2023-010Q,2026-06-27T05:17:19.023648,14.98329729,.0002908,69.9998,128.2458,266.2845,93.7982,0,U,55283,999,18918,-.56896E-5,-.161E-5,0
STARLINK-5337,2023-010R,2026-06-27T04:47:15.787392,14.98327172,.0003724,69.9995,128.1691,260.3700,99.7038,0,U,55284,999,18917,-.284E-5,-.127E-5,0
STARLINK-5332,2023-010S,2026-06-27T04:10:48.504000,14.98318430,.0002845,69.9993,88.3286,268.2129,91.8704,0,U,55285,999,19104,.48505E-4,.486E-5,0
STARLINK-5338,2023-010T,2026-06-27T05:11:00.087072,14.98328699,.0003554,70.0000,108.3627,262.3914,97.6842,0,U,55286,999,18967,-.12993E-3,-.1643E-4,0
STARLINK-5341,2023-010U,2026-06-27T03:46:32.735712,14.98326863,.0003203,70.0001,88.5964,263.0413,97.0382,0,U,55287,999,19015,-.24626E-4,-.387E-5,0
STARLINK-5311,2023-010V,2026-06-27T04:53:12.367104,14.98324674,.0003056,70.0000,108.3180,256.4527,103.6292,0,U,55288,999,18967,-.11051E-3,-.1411E-4,0
STARLINK-5320,2023-010W,2026-06-27T05:16:59.943072,14.98327088,.0003032,69.9999,108.3772,266.0989,93.9823,0,U,55289,999,18967,-.1231E-4,-.24E-5,0
STARLINK-5266,2023-010X,2026-06-27T05:04:58.605888,14.98327089,.0003284,69.9998,108.3469,258.8388,101.2402,0,U,55290,999,18967,.74772E-5,-.4E-7,0
STARLINK-5327,2023-010Y,2026-06-27T03:52:53.173056,14.98327555,.000311,70.0001,108.5732,265.0535,95.0269,0,U,55291,999,18966,-.29874E-5,-.129E-5,0
STARLINK-5325,2023-010Z,2026-06-27T04:46:56.732736,14.98327720,.0002894,69.9998,108.3022,269.0476,91.0351,0,U,55292,999,18967,-.31624E-4,-.47E-5,0
STARLINK-5287,2023-010AA,2026-06-27T04:52:57.025920,14.98322481,.0002984,69.9997,108.3184,270.8980,89.1837,0,U,55293,999,18967,-.1217E-3,-.1545E-4,0
STARLINK-5286,2023-010AB,2026-06-27T04:59:18.907872,14.98318351,.0003531,69.9999,128.1992,264.7882,95.2874,0,U,55294,999,18918,-.21537E-3,-.2661E-4,0
STARLINK-5293,2023-010AC,2026-06-27T04:23:15.331776,14.98329992,.000366,69.9997,128.5160,263.5772,96.4971,0,U,55295,999,18918,-.78332E-5,-.187E-5,0
STARLINK-5285,2023-010AD,2026-06-27T04:28:54.793056,14.98326204,.0002973,70.0003,108.2591,261.7681,98.3141,0,U,55296,999,19055,-.31804E-4,-.472E-5,0
STARLINK-5284,2023-010AE,2026-06-27T04:40:56.702208,14.98321482,.0002908,70.0000,108.2884,269.6125,90.4701,0,U,55297,999,18967,-.79027E-4,-.1036E-4,0
STARLINK-5270,2023-010AG,2026-06-27T04:22:53.867424,14.98329818,.0003155,70.0001,108.2465,267.8130,92.2668,0,U,55299,999,19055,-.2902E-4,-.439E-5,0
STARLINK-5308,2023-010AH,2026-06-27T04:16:53.460192,14.98335851,.0002573,69.9999,108.2352,255.3395,104.7479,0,U,55300,999,18967,.18467E-4,.127E-5,0
STARLINK-5321,2023-010AK,2026-06-27T04:34:56.229312,14.98323812,.0003132,69.9996,108.2707,270.6819,89.3981,0,U,55302,999,18967,-.68144E-4,-.906E-5,0
STARLINK-5322,2023-010AL,2026-06-27T04:41:15.279936,14.98327482,.0003197,69.9994,128.1548,266.4105,93.6689,0,U,55303,999,18918,.15296E-5,-.75E-6,0
STARLINK-5318,2023-010AM,2026-06-27T04:10:51.958272,14.98345490,.0003829,69.9990,108.2148,259.7546,100.3181,0,U,55304,999,18967,-.31661E-3,-.3871E-4,0
STARLINK-5316,2023-010AN,2026-06-27T04:04:54.480864,14.98334669,.0002739,70.0001,108.6053,270.3672,89.7173,0,U,55305,999,18967,-.10661E-3,-.1365E-4,0
STARLINK-5295,2023-010AP,2026-06-27T04:58:39.226080,14.98321470,.0002569,70.0003,88.4590,267.4353,92.6512,0,U,55306,999,19017,-.10649E-3,-.1363E-4,0
STARLINK-5288,2023-010AQ,2026-06-27T03:28:31.399104,14.98327983,.0002974,70.0004,88.6430,265.5947,94.4872,0,U,55307,999,19016,-.86543E-4,-.1125E-4,0
STARLINK-5315,2023-010AS,2026-06-27T03:52:31.515168,14.98328113,.0002893,70.0000,88.2984,271.2283,88.8545,0,U,55309,999,19017,-.62284E-5,-.167E-5,0
STARLINK-5309,2023-010AT,2026-06-27T03:10:29.159616,14.98334273,.0002882,70.0003,88.5967,259.8802,100.2032,0,U,55310,999,19016,-.17258E-3,-.2152E-4,0
STARLINK-5312,2023-010AU,2026-06-27T03:16:31.351008,14.98319692,.0002652,70.0003,88.6115,271.5798,88.5057,0,U,55311,999,19103,-.90139E-4,-.1168E-4,0
STARLINK-5296,2023-010AV,2026-06-27T04:10:32.914848,14.98327166,.0002808,70.0001,88.2284,270.6115,89.4722,0,U,55312,999,19102,-.31746E-4,-.472E-5,0
STARLINK-5313,2023-010AW,2026-06-27T04:34:35.978016,14.98329043,.0002805,70.0002,88.3992,266.1338,93.9500,0,U,55313,999,19104,-.31011E-4,-.463E-5,0
