STARLINK-5298           
1 55281U 23010N   26178.22453106  .00001305  00000+0  11716-3 0  9991
2 55281  69.9998 128.2601 0003507 271.5041  88.5716 14.98321309189180
STARLINK-5330           
1 55282U 23010P   26178.19965140  .00000340  00000+0  36260-4 0  9994
2 55282  69.9995 128.1703 0003730 262.7979  97.2756 14.98328764189183
STARLINK-5317           
1 55283U 23010Q   26178.22035907 -.00000161  00000+0 -56896-5 0  9999
2 55283  69.9998 128.2458 0002908 266.2845  93.7982 14.98329729189186
STARLINK-5337           
1 55284U 23010R   26178.19948828 -.00000127  00000+0 -28400-5 0  9993
2 55284  69.9995 128.1691 0003724 260.3700  99.7038 14.98327172189171
STARLINK-5332           
1 55285U 23010S   26178.17417250  .00000486  00000+0  48505-4 0  9995
2 55285  69.9993  88.3286 0002845 268.2129  91.8704 14.98318430191041
STARLINK-5338           
1 55286U 23010T   26178.21597323 -.00001643  00000+0 -12993-3 0  9990
2 55286  70.0000 108.3627 0003554 262.3914  97.6842 14.98328699189672
STARLINK-5341           
1 55287U 23010U   26178.15732333 -.00000387  00000+0 -24626-4 0  9997
2 55287  70.0001  88.5964 0003203 263.0413  97.0382 14.98326863190159
STARLINK-5311           
1 55288U 23010V   26178.20361536 -.00001411  00000+0 -11051-3 0  9993
2 55288  70.0000 108.3180 0003056 256.4527 103.6292 14.98324674189675
STARLINK-5320           
1 55289U 23010W   26178.22013823 -.00000240  00000+0 -12310-4 0  9998
2 55289  69.9999 108.3772 0003032 266.0989  93.9823 14.98327088189673
STARLINK-5266           
1 55290U 23010X   26178.21178942 -.00000004  00000+0  74772-5 0  9991
2 55290  69.9998 108.3469 0003284 258.8388 101.2402 14.98327089189675
STARLINK-5327           
1 55291U 23010Y   26178.16172654 -.00000129  00000+0 -29874-5 0  9992
2 55291  70.0001 108.5732 0003110 265.0535  95.0269 14.98327555189669
STARLINK-5325           
1 55292U 23010Z   26178.19926774 -.00000470  00000+0 -31624-4 0  9990
2 55292  69.9998 108.3022 0002894 269.0476  91.0351 14.98327720189671
STARLINK-5287           
1 55293U 23010AA  26178.20343780 -.00001545  00000+0 -12170-3 0  9991
2 55293  69.9997 108.3184 0002984 270.8980  89.1837 14.98322481189676
STARLINK-5286           
1 55294U 23010AB  26178.20785773 -.00002661  00000+0 -21537-3 0  9991
2 55294  69.9999 128.1992 0003531 264.7882  95.2874 14.98318351189184
STARLINK-5293           
1 55295U 23010AC  26178.18281634 -.00000187  00000+0 -78332-5 0  9994
2 55295  69.9997 128.5160 0003660 263.5772  96.4971 14.98329992189186
STARLINK-5285           
1 55296U 23010AD  26178.18674529 -.00000472  00000+0 -31804-4 0  9993
2 55296  70.0003 108.2591 0002973 261.7681  98.3141 14.98326204190552
STARLINK-5284           
1 55297U 23010AE  26178.19510072 -.00001036  00000+0 -79027-4 0  9993
2 55297  70.0000 108.2884 0002908 269.6125  90.4701 14.98321482189672
STARLINK-5270           
1 55299U 23010AG  26178.18256791 -.00000439  00000+0 -29020-4 0  9993
2 55299  70.0001 108.2465 0003155 267.8130  92.2668 14.98329818190553
STARLINK-5308           
1 55300U 23010AH  26178.17839653  .00000127  00000+0  18467-4 0  9994
2 55300  69.9999 108.2352 0002573 255.3395 104.7479 14.98335851189676
STARLINK-5321           
1 55302U 23010AK  26178.19092858 -.00000906  00000+0 -68144-4 0  9990
2 55302  69.9996 108.2707 0003132 270.6819  89.3981 14.98323812189672
STARLINK-5322           
1 55303U 23010AL  26178.19531574 -.00000075  00000+0  15296-5 0  9991
2 55303  69.9994 128.1548 0003197 266.4105  93.6689 14.98327482189183
STARLINK-5318           
1 55304U 23010AM  26178.17421248 -.00003871  00000+0 -31661-3 0  9996
2 55304  69.9990 108.2148 0003829 259.7546 100.3181 14.98345490189677
STARLINK-5316           
1 55305U 23010AN  26178.17007501 -.00001365  00000+0 -10661-3 0  9992
2 55305  70.0001 108.6053 0002739 270.3672  89.7173 14.98334669189678
STARLINK-5295           
1 55306U 23010AP  26178.20739845 -.00001363  00000+0 -10649-3 0  9994
2 55306  70.0003  88.4590 0002569 267.4353  92.6512 14.98321470190179
STARLINK-5288           
1 55307U 23010AQ  26178.14480786 -.00001125  00000+0 -86543-4 0  9998
2 55307  70.0004  88.6430 0002974 265.5947  94.4872 14.98327983190167
STARLINK-5315           
1 55309U 23010AS  26178.16147587 -.00000167  00000+0 -62284-5 0  9993
2 55309  70.0000  88.2984 0002893 271.2283  88.8545 14.98328113190173
STARLINK-5309           
1 55310U 23010AT  26178.13228194 -.00002152  00000+0 -17258-3 0  9991
2 55310  70.0003  88.5967 0002882 259.8802 100.2032 14.98334273190162
STARLINK-5312           
1 55311U 23010AU  26178.13647397 -.00001168  00000+0 -90139-4 0  9998
2 55311  70.0003  88.6115 0002652 271.5798  88.5057 14.98319692191039
STARLINK-5296           
1 55312U 23010AV  26178.17399207 -.00000472  00000+0 -31746-4 0  9993
2 55312  70.0001  88.2284 0002808 270.6115  89.4722 14.98327166191020
STARLINK-5313           
1 55313U 23010AW  26178.19069419 -.00000463  00000+0 -31011-4 0  9990
2 55313  70.0002  88.3992 0002805 266.1338  93.9500 14.98329043191045
